{
 "type": "FeatureCollection",
 "features": [
  {
   "type": "Feature",
   "properties": {
    "name": "Lake Rotoroa / Hamilton Lake",
    "osm_way_id": 28496787,
    "natural": "water",
    "water": "lake",
    "source": "OpenStreetMap contributors, https://www.openstreetmap.org/way/28496787",
    "licence": "Open Database Licence (ODbL) 1.0, https://opendatacommons.org/licenses/odbl/1-0/",
    "attribution": "\u00a9 OpenStreetMap contributors",
    "retrieved_via": "Overpass API (overpass-api.de), OSM data timestamp 2026-09-20T08:20:06Z"
   },
   "geometry": {
    "type": "Polygon",
    "coordinates": [
     [
      [
       175.275256,
       -37.7934692
      ],
      [
       175.2755786,
       -37.7935749
      ],
      [
       175.2758006,
       -37.7939154
      ],
      [
       175.2757651,
       -37.7940497
      ],
      [
       175.2757736,
       -37.7943669
      ],
      [
       175.2757047,
       -37.7945992
      ],
      [
       175.2755293,
       -37.7948869
      ],
      [
       175.2753427,
       -37.7951596
      ],
      [
       175.2751273,
       -37.7953735
      ],
      [
       175.2748191,
       -37.7955108
      ],
      [
       175.274538,
       -37.7958617
      ],
      [
       175.2745818,
       -37.7959225
      ],
      [
       175.2750293,
       -37.7956918
      ],
      [
       175.2751427,
       -37.7957017
      ],
      [
       175.2752486,
       -37.7958327
      ],
      [
       175.2753003,
       -37.795925
      ],
      [
       175.2752965,
       -37.7961568
      ],
      [
       175.2752299,
       -37.7962518
      ],
      [
       175.2751061,
       -37.7963962
      ],
      [
       175.2744672,
       -37.7966817
      ],
      [
       175.2743379,
       -37.7967651
      ],
      [
       175.2743823,
       -37.7969066
      ],
      [
       175.2744597,
       -37.7969929
      ],
      [
       175.2747416,
       -37.797141
      ],
      [
       175.2749074,
       -37.7971677
      ],
      [
       175.2752352,
       -37.7971531
      ],
      [
       175.2754055,
       -37.7970546
      ],
      [
       175.2754974,
       -37.797029
      ],
      [
       175.2760436,
       -37.7969949
      ],
      [
       175.2763438,
       -37.7970702
      ],
      [
       175.2766782,
       -37.7972369
      ],
      [
       175.2768922,
       -37.7974036
      ],
      [
       175.277139,
       -37.7975894
      ],
      [
       175.2777079,
       -37.7978511
      ],
      [
       175.2780126,
       -37.7979257
      ],
      [
       175.2782004,
       -37.7979908
      ],
      [
       175.2782862,
       -37.7979214
      ],
      [
       175.2783922,
       -37.7978812
      ],
      [
       175.2784887,
       -37.7978812
      ],
      [
       175.2785805,
       -37.7978886
      ],
      [
       175.2786738,
       -37.7979246
      ],
      [
       175.2787596,
       -37.7979946
      ],
      [
       175.2788817,
       -37.7981318
      ],
      [
       175.278912,
       -37.7982549
      ],
      [
       175.2789337,
       -37.7983757
      ],
      [
       175.2787909,
       -37.7992196
      ],
      [
       175.2787377,
       -37.7992405
      ],
      [
       175.2785601,
       -37.7992577
      ],
      [
       175.278537,
       -37.7993102
      ],
      [
       175.2788294,
       -37.7994605
      ],
      [
       175.2788394,
       -37.799539
      ],
      [
       175.2788566,
       -37.7996353
      ],
      [
       175.2789324,
       -37.7996878
      ],
      [
       175.2790084,
       -37.7996942
      ],
      [
       175.2790773,
       -37.7997675
      ],
      [
       175.2791049,
       -37.7998342
      ],
      [
       175.2790495,
       -37.7999226
      ],
      [
       175.2788276,
       -37.8000216
      ],
      [
       175.2786409,
       -37.8003317
      ],
      [
       175.2787898,
       -37.8004898
      ],
      [
       175.2790977,
       -37.8006744
      ],
      [
       175.2791578,
       -37.8007513
      ],
      [
       175.2791371,
       -37.8008914
      ],
      [
       175.279018,
       -37.8011745
      ],
      [
       175.2789427,
       -37.801302
      ],
      [
       175.2788433,
       -37.8013849
      ],
      [
       175.2788062,
       -37.8015626
      ],
      [
       175.2786778,
       -37.8019458
      ],
      [
       175.2786632,
       -37.8021099
      ],
      [
       175.2787934,
       -37.8022576
      ],
      [
       175.2788964,
       -37.8023721
      ],
      [
       175.2789719,
       -37.8025744
      ],
      [
       175.2790882,
       -37.8026476
      ],
      [
       175.279212,
       -37.8027973
      ],
      [
       175.279288,
       -37.8028299
      ],
      [
       175.2794113,
       -37.8030112
      ],
      [
       175.2794798,
       -37.803125
      ],
      [
       175.2794735,
       -37.8032478
      ],
      [
       175.2795167,
       -37.8033878
      ],
      [
       175.2795203,
       -37.8034519
      ],
      [
       175.279461,
       -37.8035705
      ],
      [
       175.2793483,
       -37.803543
      ],
      [
       175.2792516,
       -37.8036172
      ],
      [
       175.2791968,
       -37.8036278
      ],
      [
       175.2791217,
       -37.8035811
      ],
      [
       175.2789943,
       -37.8035839
      ],
      [
       175.2789078,
       -37.8036172
      ],
      [
       175.278785,
       -37.8036203
      ],
      [
       175.2785745,
       -37.8035849
      ],
      [
       175.2784444,
       -37.8035743
      ],
      [
       175.2781136,
       -37.8035344
      ],
      [
       175.2779214,
       -37.8035589
      ],
      [
       175.2777156,
       -37.8034906
      ],
      [
       175.2774303,
       -37.8034087
      ],
      [
       175.2770483,
       -37.8032797
      ],
      [
       175.2769478,
       -37.8031866
      ],
      [
       175.2768378,
       -37.8030773
      ],
      [
       175.2767779,
       -37.8030482
      ],
      [
       175.2767041,
       -37.8029679
      ],
      [
       175.2765387,
       -37.8028717
      ],
      [
       175.2765488,
       -37.8027811
      ],
      [
       175.276412,
       -37.802682
      ],
      [
       175.2763321,
       -37.8026128
      ],
      [
       175.2760577,
       -37.802184
      ],
      [
       175.2756371,
       -37.8019023
      ],
      [
       175.2754553,
       -37.8018131
      ],
      [
       175.2752586,
       -37.8018385
      ],
      [
       175.2750561,
       -37.8018417
      ],
      [
       175.274865,
       -37.8018412
      ],
      [
       175.2748275,
       -37.8018497
      ],
      [
       175.2746826,
       -37.8018031
      ],
      [
       175.2746129,
       -37.8017479
      ],
      [
       175.2745465,
       -37.8016695
      ],
      [
       175.2744407,
       -37.8014174
      ],
      [
       175.2745551,
       -37.8011876
      ],
      [
       175.2744692,
       -37.8010877
      ],
      [
       175.2742943,
       -37.8009402
      ],
      [
       175.2740926,
       -37.8005802
      ],
      [
       175.2740631,
       -37.8004784
      ],
      [
       175.2739584,
       -37.8003238
      ],
      [
       175.2737788,
       -37.8001563
      ],
      [
       175.2736616,
       -37.7999659
      ],
      [
       175.27354,
       -37.7998829
      ],
      [
       175.273235,
       -37.799706
      ],
      [
       175.273249,
       -37.7996805
      ],
      [
       175.2730438,
       -37.7996069
      ],
      [
       175.2729687,
       -37.7996138
      ],
      [
       175.2729211,
       -37.7996657
      ],
      [
       175.2728245,
       -37.7996736
      ],
      [
       175.2724208,
       -37.7996445
      ],
      [
       175.2721265,
       -37.7995836
      ],
      [
       175.2718073,
       -37.7994664
      ],
      [
       175.2710938,
       -37.7992726
      ],
      [
       175.2707542,
       -37.799192
      ],
      [
       175.2705467,
       -37.7990776
      ],
      [
       175.2704072,
       -37.7989376
      ],
      [
       175.2702141,
       -37.79873
      ],
      [
       175.2701497,
       -37.7983908
      ],
      [
       175.269934,
       -37.7980395
      ],
      [
       175.2698205,
       -37.7976785
      ],
      [
       175.2697394,
       -37.797382
      ],
      [
       175.2697527,
       -37.7972337
      ],
      [
       175.2697903,
       -37.79715
      ],
      [
       175.2698342,
       -37.7970725
      ],
      [
       175.2699516,
       -37.7968779
      ],
      [
       175.2699968,
       -37.7968225
      ],
      [
       175.2700075,
       -37.7967695
      ],
      [
       175.2699861,
       -37.7967218
      ],
      [
       175.2700457,
       -37.7966331
      ],
      [
       175.2700102,
       -37.7965306
      ],
      [
       175.2700082,
       -37.7965316
      ],
      [
       175.2699445,
       -37.79645
      ],
      [
       175.2698386,
       -37.7963859
      ],
      [
       175.2696387,
       -37.7962407
      ],
      [
       175.2696079,
       -37.7962036
      ],
      [
       175.269502,
       -37.7961093
      ],
      [
       175.2695811,
       -37.7959896
      ],
      [
       175.2694926,
       -37.7959726
      ],
      [
       175.2694094,
       -37.7959154
      ],
      [
       175.2693987,
       -37.7957056
      ],
      [
       175.2694282,
       -37.7955212
      ],
      [
       175.2695543,
       -37.7952329
      ],
      [
       175.2697796,
       -37.7949192
      ],
      [
       175.26986,
       -37.7948027
      ],
      [
       175.2700049,
       -37.7946755
      ],
      [
       175.2704823,
       -37.7943576
      ],
      [
       175.2705708,
       -37.7942728
      ],
      [
       175.270595,
       -37.7942399
      ],
      [
       175.2705413,
       -37.7941456
      ],
      [
       175.2704903,
       -37.7940015
      ],
      [
       175.2704421,
       -37.7937662
      ],
      [
       175.2704823,
       -37.7936507
      ],
      [
       175.2705708,
       -37.7935733
      ],
      [
       175.2707666,
       -37.7933974
      ],
      [
       175.270898,
       -37.7933084
      ],
      [
       175.2711394,
       -37.7932024
      ],
      [
       175.2714854,
       -37.7930646
      ],
      [
       175.2717483,
       -37.7930021
      ],
      [
       175.2719361,
       -37.7929936
      ],
      [
       175.2721711,
       -37.7929985
      ],
      [
       175.2723511,
       -37.7930301
      ],
      [
       175.2725744,
       -37.7931176
      ],
      [
       175.2727999,
       -37.7933233
      ],
      [
       175.2730265,
       -37.7934015
      ],
      [
       175.2731729,
       -37.7935813
      ],
      [
       175.2732273,
       -37.7936645
      ],
      [
       175.2734305,
       -37.7936683
      ],
      [
       175.273821,
       -37.7935285
      ],
      [
       175.2744683,
       -37.7935154
      ],
      [
       175.2747081,
       -37.7934865
      ],
      [
       175.275256,
       -37.7934692
      ]
     ]
    ]
   }
  }
 ]
}
